GLOBALSTAR M001         
1 25162U 98008A   25148.97177720 -.00000079  00000+0  13339-3 0  9999
2 25162  52.0058  29.1513 0000976 182.7948 190.6490 12.38213548241339
GLOBALSTAR M004         
1 25163U 98008B   25148.63654403 -.00000098  00000+0  33961-4 0  9996
2 25163  51.9987 113.7941 0002845 252.0168 279.3123 12.63396534259215
GLOBALSTAR M002         
1 25164U 98008C   25148.71633624 -.00000089  00000+0 -24390-3 0  9994
2 25164  52.0022 289.0243 0002134 116.7967 243.3071 11.61509788181800
GLOBALSTAR M003         
1 25165U 98008D   25148.93041646 -.00000139  00000+0 -53346-3 0  9995
2 25165  51.9985 221.8575 0007912 252.4683 278.9577 12.12075670230884
GLOBALSTAR M014         
1 25306U 98023A   25148.93864531 -.00000084  00000+0 -11783-3 0  9993
2 25306  51.9821 212.0969 0000784 303.2517 227.4054 11.65480741188922
GLOBALSTAR M006         
1 25307U 98023B   25148.73277878 -.00000027  00000+0  98973-3 0  9996
2 25307  51.9939 264.3624 0003490  79.6872  74.9614 11.58176298214575
GLOBALSTAR M015         
1 25308U 98023C   25148.89692706 -.00000086  00000+0 -29142-3 0  9993
2 25308  51.9850   1.5398 0013120  43.5020 329.8827 11.48858743191868
GLOBALSTAR M008         
1 25309U 98023D   25148.84719793 -.00000063  00000+0  25663-3 0  9993
2 25309  51.9969 254.1263 0003212 135.3967  16.9938 12.36069297235455
